[{"OBJECT_NAME":"KUIPER-00062","OBJECT_ID":"2025-134Y","EPOCH":"2026-03-03T13:19:26.891904","MEAN_MOTION":14.79936806,"ECCENTRICITY":7.227e-5,"INCLINATION":51.8942,"RA_OF_ASC_NODE":257.7516,"ARG_OF_PERICENTER":158.0929,"MEAN_ANOMALY":202.0065,"EPHEMERIS_TYPE":0,"CLASSIFICATION_TYPE":"U","NORAD_CAT_ID":64522,"ELEMENT_SET_NO":999,"REV_AT_EPOCH":3920,"BSTAR":0.00019131075,"MEAN_MOTION_DOT":1.238e-5,"MEAN_MOTION_DDOT":0},{"OBJECT_NAME":"KUIPER-00063","OBJECT_ID":"2025-134Z","EPOCH":"2026-03-03T00:11:15.788832","MEAN_MOTION":14.79357347,"ECCENTRICITY":0.0001012,"INCLINATION":51.9014,"RA_OF_ASC_NODE":267.6547,"ARG_OF_PERICENTER":97.4432,"MEAN_ANOMALY":262.6646,"EPHEMERIS_TYPE":0,"CLASSIFICATION_TYPE":"U","NORAD_CAT_ID":64523,"ELEMENT_SET_NO":999,"REV_AT_EPOCH":3901,"BSTAR":0.00056918262,"MEAN_MOTION_DOT":4.063e-5,"MEAN_MOTION_DDOT":0},{"OBJECT_NAME":"KUIPER-00064","OBJECT_ID":"2025-134AA","EPOCH":"2026-03-02T20:59:18.774240","MEAN_MOTION":14.79943235,"ECCENTRICITY":7.72e-5,"INCLINATION":51.9019,"RA_OF_ASC_NODE":265.6573,"ARG_OF_PERICENTER":78.0299,"MEAN_ANOMALY":282.075,"EPHEMERIS_TYPE":0,"CLASSIFICATION_TYPE":"U","NORAD_CAT_ID":64524,"ELEMENT_SET_NO":999,"REV_AT_EPOCH":3903,"BSTAR":-0.00080371,"MEAN_MOTION_DOT":-6.344e-5,"MEAN_MOTION_DDOT":0},{"OBJECT_NAME":"KUIPER-00065","OBJECT_ID":"2025-134AB","EPOCH":"2026-03-03T00:05:05.563968","MEAN_MOTION":14.79254283,"ECCENTRICITY":0.00014129,"INCLINATION":51.9022,"RA_OF_ASC_NODE":270.2378,"ARG_OF_PERICENTER":207.5333,"MEAN_ANOMALY":152.5554,"EPHEMERIS_TYPE":0,"CLASSIFICATION_TYPE":"U","NORAD_CAT_ID":64525,"ELEMENT_SET_NO":999,"REV_AT_EPOCH":3896,"BSTAR":0.00057507368,"MEAN_MOTION_DOT":4.096e-5,"MEAN_MOTION_DDOT":0},{"OBJECT_NAME":"KUIPER-00066","OBJECT_ID":"2025-134AC","EPOCH":"2026-03-03T14:23:50.224704","MEAN_MOTION":15.23121012,"ECCENTRICITY":0.00015904,"INCLINATION":51.8727,"RA_OF_ASC_NODE":212.8194,"ARG_OF_PERICENTER":273.8755,"MEAN_ANOMALY":86.2044,"EPHEMERIS_TYPE":0,"CLASSIFICATION_TYPE":"U","NORAD_CAT_ID":64526,"ELEMENT_SET_NO":999,"REV_AT_EPOCH":3983,"BSTAR":0.0010955137,"MEAN_MOTION_DOT":0.00025966,"MEAN_MOTION_DDOT":0},{"OBJECT_NAME":"KUIPER-00069","OBJECT_ID":"2025-151A","EPOCH":"2026-03-03T15:16:24.411360","MEAN_MOTION":14.79941122,"ECCENTRICITY":7.197e-5,"INCLINATION":51.9026,"RA_OF_ASC_NODE":307.3913,"ARG_OF_PERICENTER":103.9535,"MEAN_ANOMALY":256.1508,"EPHEMERIS_TYPE":0,"CLASSIFICATION_TYPE":"U","NORAD_CAT_ID":64816,"ELEMENT_SET_NO":999,"REV_AT_EPOCH":3586,"BSTAR":0.00078597068,"MEAN_MOTION_DOT":5.777e-5,"MEAN_MOTION_DDOT":0},{"OBJECT_NAME":"KUIPER-00070","OBJECT_ID":"2025-151B","EPOCH":"2026-03-02T23:13:45.308064","MEAN_MOTION":14.79891797,"ECCENTRICITY":9.155e-5,"INCLINATION":51.9013,"RA_OF_ASC_NODE":335.2853,"ARG_OF_PERICENTER":92.7563,"MEAN_ANOMALY":267.3504,"EPHEMERIS_TYPE":0,"CLASSIFICATION_TYPE":"U","NORAD_CAT_ID":64817,"ELEMENT_SET_NO":999,"REV_AT_EPOCH":3542,"BSTAR":0.00081824405,"MEAN_MOTION_DOT":6.016e-5,"MEAN_MOTION_DDOT":0},{"OBJECT_NAME":"KUIPER-00071","OBJECT_ID":"2025-151C","EPOCH":"2026-03-03T04:09:07.140384","MEAN_MOTION":14.80006353,"ECCENTRICITY":6.056e-5,"INCLINATION":51.9024,"RA_OF_ASC_NODE":331.8978,"ARG_OF_PERICENTER":230.892,"MEAN_ANOMALY":129.1989,"EPHEMERIS_TYPE":0,"CLASSIFICATION_TYPE":"U","NORAD_CAT_ID":64818,"ELEMENT_SET_NO":999,"REV_AT_EPOCH":3430,"BSTAR":0.00085587123,"MEAN_MOTION_DOT":6.321e-5,"MEAN_MOTION_DDOT":0},{"OBJECT_NAME":"KUIPER-00072","OBJECT_ID":"2025-151D","EPOCH":"2026-03-03T02:14:33.847584","MEAN_MOTION":14.79968521,"ECCENTRICITY":0.0001308,"INCLINATION":51.8988,"RA_OF_ASC_NODE":312.2379,"ARG_OF_PERICENTER":83.337,"MEAN_ANOMALY":276.7741,"EPHEMERIS_TYPE":0,"CLASSIFICATION_TYPE":"U","NORAD_CAT_ID":64819,"ELEMENT_SET_NO":999,"REV_AT_EPOCH":3457,"BSTAR":0.00080533578,"MEAN_MOTION_DOT":5.929e-5,"MEAN_MOTION_DDOT":0},{"OBJECT_NAME":"KUIPER-00073","OBJECT_ID":"2025-151E","EPOCH":"2026-03-03T03:20:45.983904","MEAN_MOTION":14.7993017,"ECCENTRICITY":0.00010117,"INCLINATION":51.9025,"RA_OF_ASC_NODE":332.0413,"ARG_OF_PERICENTER":103.181,"MEAN_ANOMALY":256.9265,"EPHEMERIS_TYPE":0,"CLASSIFICATION_TYPE":"U","NORAD_CAT_ID":64820,"ELEMENT_SET_NO":999,"REV_AT_EPOCH":3548,"BSTAR":-9.7124979e-5,"MEAN_MOTION_DOT":-9.61e-6,"MEAN_MOTION_DDOT":0},{"OBJECT_NAME":"KUIPER-00074","OBJECT_ID":"2025-151F","EPOCH":"2026-03-03T14:00:03.000384","MEAN_MOTION":14.95343849,"ECCENTRICITY":6.047e-5,"INCLINATION":51.9041,"RA_OF_ASC_NODE":317.236,"ARG_OF_PERICENTER":222.7128,"MEAN_ANOMALY":99.5059,"EPHEMERIS_TYPE":0,"CLASSIFICATION_TYPE":"U","NORAD_CAT_ID":64821,"ELEMENT_SET_NO":999,"REV_AT_EPOCH":355,"BSTAR":0.03948989,"MEAN_MOTION_DOT":0.00466078,"MEAN_MOTION_DDOT":0},{"OBJECT_NAME":"KUIPER-00075","OBJECT_ID":"2025-151G","EPOCH":"2026-03-03T13:16:29.498016","MEAN_MOTION":15.41542888,"ECCENTRICITY":0.00048925,"INCLINATION":51.8694,"RA_OF_ASC_NODE":251.6521,"ARG_OF_PERICENTER":267.134,"MEAN_ANOMALY":92.9089,"EPHEMERIS_TYPE":0,"CLASSIFICATION_TYPE":"U","NORAD_CAT_ID":64822,"ELEMENT_SET_NO":999,"REV_AT_EPOCH":3545,"BSTAR":0.0013768095,"MEAN_MOTION_DOT":0.00058811,"MEAN_MOTION_DDOT":0},{"OBJECT_NAME":"KUIPER-00076","OBJECT_ID":"2025-151H","EPOCH":"2026-03-03T03:24:33.841440","MEAN_MOTION":14.80444302,"ECCENTRICITY":3.403e-5,"INCLINATION":51.9028,"RA_OF_ASC_NODE":321.9563,"ARG_OF_PERICENTER":347.2502,"MEAN_ANOMALY":12.8452,"EPHEMERIS_TYPE":0,"CLASSIFICATION_TYPE":"U","NORAD_CAT_ID":64823,"ELEMENT_SET_NO":999,"REV_AT_EPOCH":3444,"BSTAR":0.00078313042,"MEAN_MOTION_DOT":5.826e-5,"MEAN_MOTION_DDOT":0},{"OBJECT_NAME":"KUIPER-00077","OBJECT_ID":"2025-151J","EPOCH":"2026-03-02T22:35:23.987904","MEAN_MOTION":14.80117002,"ECCENTRICITY":0.0001149,"INCLINATION":51.9027,"RA_OF_ASC_NODE":327.9313,"ARG_OF_PERICENTER":182.6871,"MEAN_ANOMALY":177.4085,"EPHEMERIS_TYPE":0,"CLASSIFICATION_TYPE":"U","NORAD_CAT_ID":64824,"ELEMENT_SET_NO":999,"REV_AT_EPOCH":3434,"BSTAR":0.00078503,"MEAN_MOTION_DOT":5.794e-5,"MEAN_MOTION_DDOT":0},{"OBJECT_NAME":"KUIPER-00078","OBJECT_ID":"2025-151K","EPOCH":"2026-03-02T23:29:18.040128","MEAN_MOTION":14.79935717,"ECCENTRICITY":7.509e-5,"INCLINATION":51.9023,"RA_OF_ASC_NODE":325.2638,"ARG_OF_PERICENTER":94.6443,"MEAN_ANOMALY":265.4606,"EPHEMERIS_TYPE":0,"CLASSIFICATION_TYPE":"U","NORAD_CAT_ID":64825,"ELEMENT_SET_NO":999,"REV_AT_EPOCH":3438,"BSTAR":0.00041593949,"MEAN_MOTION_DOT":2.951e-5,"MEAN_MOTION_DDOT":0},{"OBJECT_NAME":"KUIPER-00079","OBJECT_ID":"2025-151L","EPOCH":"2026-03-03T03:24:27.717408","MEAN_MOTION":14.79941245,"ECCENTRICITY":0.00011255,"INCLINATION":51.9014,"RA_OF_ASC_NODE":329.5173,"ARG_OF_PERICENTER":91.2498,"MEAN_ANOMALY":268.8593,"EPHEMERIS_TYPE":0,"CLASSIFICATION_TYPE":"U","NORAD_CAT_ID":64826,"ELEMENT_SET_NO":999,"REV_AT_EPOCH":3553,"BSTAR":4.7684843e-5,"MEAN_MOTION_DOT":1.42e-6,"MEAN_MOTION_DDOT":0}]
